{"type": "FeatureCollection", "features": [{"type": "Feature", "properties": {"norad_id": 28054, "name": "DMSP 5D-3 F16 (USA 172)", "group": "weather", "lat": 9.780550122993276, "lon": 12.133913114909742, "alt_km": 844.9440020060892, "timestamp": "2025-12-22T04:03:38.803398+00:00", "meta": {"OBJECT_NAME": "DMSP 5D-3 F16 (USA 172)", "OBJECT_ID": "2003-048A", "EPOCH": "2025-12-21T19:46:23.467008", "MEAN_MOTION": 14.14427216, "ECCENTRICITY": 0.0006268, "INCLINATION": 99.0038, "RA_OF_ASC_NODE": 13.3521, "ARG_OF_PERICENTER": 291.8507, "MEAN_ANOMALY": 120.7434, "EPHEMERIS_TYPE": 0, "CLASSIFICATION_TYPE": "U", "NORAD_CAT_ID": 28054, "ELEMENT_SET_NO": 999, "REV_AT_EPOCH": 14441, "BSTAR": 7.1171e-05, "MEAN_MOTION_DOT": 9.1e-07, "MEAN_MOTION_DDOT": 0}, "tle": {"line1": "1 28054U 03048A   25355.82388272  .00000091  00000+0  71171-4 0  9994", "line2": "2 28054  99.0038  13.3521 0006268 291.8507 120.7434 14.14427216144416"}}, "geometry": {"type": "Point", "coordinates": [12.133913114909742, 9.780550122993276]}}, {"type": "Feature", "properties": {"norad_id": 28912, "name": "METEOSAT-9 (MSG-2)", "group": "weather", "lat": 5.757192188673293, "lon": -163.92682759665064, "alt_km": 36122.056861223835, "timestamp": "2025-12-22T04:03:38.803448+00:00", "meta": {"OBJECT_NAME": "METEOSAT-9 (MSG-2)", "OBJECT_ID": "2005-049B", "EPOCH": "2025-12-21T18:33:02.923200", "MEAN_MOTION": 1.00265925, "ECCENTRICITY": 0.0100454, "INCLINATION": 8.9455, "RA_OF_ASC_NODE": 55.869, "ARG_OF_PERICENTER": 282.9863, "MEAN_ANOMALY": 74.5349, "EPHEMERIS_TYPE": 0, "CLASSIFICATION_TYPE": "U", "NORAD_CAT_ID": 28912, "ELEMENT_SET_NO": 999, "REV_AT_EPOCH": 521, "BSTAR": 0, "MEAN_MOTION_DOT": 1.13e-06, "MEAN_MOTION_DDOT": 0}, "tle": {"line1": "1 28912U 05049B   25355.77295050  .00000113  00000+0  00000+0 0  9998", "line2": "2 28912   8.9455  55.8690 0100454 282.9863  74.5349  1.00265925  5210"}}, "geometry": {"type": "Point", "coordinates": [-163.92682759665064, 5.757192188673293]}}, {"type": "Feature", "properties": {"norad_id": 29522, "name": "DMSP 5D-3 F17 (USA 191)", "group": "weather", "lat": -32.66599658782382, "lon": 7.021500561647125, "alt_km": 853.2120264823425, "timestamp": "2025-12-22T04:03:38.803465+00:00", "meta": {"OBJECT_NAME": "DMSP 5D-3 F17 (USA 191)", "OBJECT_ID": "2006-050A", "EPOCH": "2025-12-21T18:02:03.084576", "MEAN_MOTION": 14.14923348, "ECCENTRICITY": 0.000979, "INCLINATION": 98.739, "RA_OF_ASC_NODE": 0.9528, "ARG_OF_PERICENTER": 197.7702, "MEAN_ANOMALY": 162.3131, "EPHEMERIS_TYPE": 0, "CLASSIFICATION_TYPE": "U", "NORAD_CAT_ID": 29522, "ELEMENT_SET_NO": 999, "REV_AT_EPOCH": 98732, "BSTAR": 8.6227e-05, "MEAN_MOTION_DOT": 1.23e-06, "MEAN_MOTION_DDOT": 0}, "tle": {"line1": "1 29522U 06050A   25355.75142459  .00000123  00000+0  86227-4 0  9992", "line2": "2 29522  98.7390   0.9528 0009790 197.7702 162.3131 14.14923348987325"}}, "geometry": {"type": "Point", "coordinates": [7.021500561647125, -32.66599658782382]}}, {"type": "Feature", "properties": {"norad_id": 32958, "name": "FENGYUN 3A", "group": "weather", "lat": -16.470777504814027, "lon": 112.91187810352393, "alt_km": 831.1505160973775, "timestamp": "2025-12-22T04:03:38.803479+00:00", "meta": {"OBJECT_NAME": "FENGYUN 3A", "OBJECT_ID": "2008-026A", "EPOCH": "2025-12-21T20:22:12.827712", "MEAN_MOTION": 14.19517178, "ECCENTRICITY": 0.0007654, "INCLINATION": 98.6709, "RA_OF_ASC_NODE": 295.1841, "ARG_OF_PERICENTER": 280.995, "MEAN_ANOMALY": 79.0365, "EPHEMERIS_TYPE": 0, "CLASSIFICATION_TYPE": "U", "NORAD_CAT_ID": 32958, "ELEMENT_SET_NO": 999, "REV_AT_EPOCH": 91024, "BSTAR": 5.4848e-05, "MEAN_MOTION_DOT": 7.2e-07, "MEAN_MOTION_DDOT": 0}, "tle": {"line1": "1 32958U 08026A   25355.84875958  .00000072  00000+0  54848-4 0  9998", "line2": "2 32958  98.6709 295.1841 0007654 280.9950  79.0365 14.19517178910243"}}, "geometry": {"type": "Point", "coordinates": [112.91187810352393, -16.470777504814027]}}, {"type": "Feature", "properties": {"norad_id": 35491, "name": "GOES 14", "group": "weather", "lat": -0.9145119353486661, "lon": 36.19329935598109, "alt_km": 35836.61935674828, "timestamp": "2025-12-22T04:03:38.803493+00:00", "meta": {"OBJECT_NAME": "GOES 14", "OBJECT_ID": "2009-033A", "EPOCH": "2025-12-21T16:04:23.731104", "MEAN_MOTION": 1.00096933, "ECCENTRICITY": 5.37e-05, "INCLINATION": 1.2256, "RA_OF_ASC_NODE": 85.3149, "ARG_OF_PERICENTER": 184.6894, "MEAN_ANOMALY": 306.1928, "EPHEMERIS_TYPE": 0, "CLASSIFICATION_TYPE": "U", "NORAD_CAT_ID": 35491, "ELEMENT_SET_NO": 999, "REV_AT_EPOCH": 481, "BSTAR": 0, "MEAN_MOTION_DOT": 2.4e-07, "MEAN_MOTION_DDOT": 0}, "tle": {"line1": "1 35491U 09033A   25355.66971911  .00000024  00000+0  00000+0 0  9991", "line2": "2 35491   1.2256  85.3149 0000537 184.6894 306.1928  1.00096933  4818"}}, "geometry": {"type": "Point", "coordinates": [36.19329935598109, -0.9145119353486661]}}, {"type": "Feature", "properties": {"norad_id": 35951, "name": "DMSP 5D-3 F18 (USA 210)", "group": "weather", "lat": -9.43588945530062, "lon": 151.03367960098038, "alt_km": 854.6317201004767, "timestamp": "2025-12-22T04:03:38.803505+00:00", "meta": {"OBJECT_NAME": "DMSP 5D-3 F18 (USA 210)", "OBJECT_ID": "2009-057A", "EPOCH": "2025-12-21T20:22:46.452000", "MEAN_MOTION": 14.14774897, "ECCENTRICITY": 0.0011817, "INCLINATION": 98.8844, "RA_OF_ASC_NODE": 332.2048, "ARG_OF_PERICENTER": 38.7104, "MEAN_ANOMALY": 321.4913, "EPHEMERIS_TYPE": 0, "CLASSIFICATION_TYPE": "U", "NORAD_CAT_ID": 35951, "ELEMENT_SET_NO": 999, "REV_AT_EPOCH": 83451, "BSTAR": 0.00014767, "MEAN_MOTION_DOT": 2.4e-06, "MEAN_MOTION_DDOT": 0}, "tle": {"line1": "1 35951U 09057A   25355.84914875  .00000240  00000+0  14767-3 0  9993", "line2": "2 35951  98.8844 332.2048 0011817  38.7104 321.4913 14.14774897834515"}}, "geometry": {"type": "Point", "coordinates": [151.03367960098038, -9.43588945530062]}}, {"type": "Feature", "properties": {"norad_id": 36411, "name": "EWS-G2 (GOES 15)", "group": "weather", "lat": 0.6539518272946834, "lon": -146.80262977035264, "alt_km": 35771.53348596688, "timestamp": "2025-12-22T04:03:38.803518+00:00", "meta": {"OBJECT_NAME": "EWS-G2 (GOES 15)", "OBJECT_ID": "2010-008A", "EPOCH": "2025-12-21T20:35:09.504960", "MEAN_MOTION": 1.00270987, "ECCENTRICITY": 0.0005472, "INCLINATION": 0.8348, "RA_OF_ASC_NODE": 86.0808, "ARG_OF_PERICENTER": 177.8098, "MEAN_ANOMALY": 196.9306, "EPHEMERIS_TYPE": 0, "CLASSIFICATION_TYPE": "U", "NORAD_CAT_ID": 36411, "ELEMENT_SET_NO": 999, "REV_AT_EPOCH": 5786, "BSTAR": 0, "MEAN_MOTION_DOT": 6e-07, "MEAN_MOTION_DDOT": 0}, "tle": {"line1": "1 36411U 10008A   25355.85774890  .00000060  00000+0  00000+0 0  9996", "line2": "2 36411   0.8348  86.0808 0005472 177.8098 196.9306  1.00270987 57862"}}, "geometry": {"type": "Point", "coordinates": [-146.80262977035264, 0.6539518272946834]}}, {"type": "Feature", "properties": {"norad_id": 36744, "name": "COMS 1", "group": "weather", "lat": -1.67008322475386, "lon": -79.99346061633749, "alt_km": 35783.31607172353, "timestamp": "2025-12-22T04:03:38.803531+00:00", "meta": {"OBJECT_NAME": "COMS 1", "OBJECT_ID": "2010-032A", "EPOCH": "2025-12-21T20:05:21.835392", "MEAN_MOTION": 1.00271509, "ECCENTRICITY": 7.4e-05, "INCLINATION": 4.3609, "RA_OF_ASC_NODE": 77.8959, "ARG_OF_PERICENTER": 208.2946, "MEAN_ANOMALY": 233.9792, "EPHEMERIS_TYPE": 0, "CLASSIFICATION_TYPE": "U", "NORAD_CAT_ID": 36744, "ELEMENT_SET_NO": 999, "REV_AT_EPOCH": 4931, "BSTAR": 0, "MEAN_MOTION_DOT": -3.25e-06, "MEAN_MOTION_DDOT": 0}, "tle": {"line1": "1 36744U 10032A   25355.83705828 -.00000325  00000+0  00000+0 0  9990", "line2": "2 36744   4.3609  77.8959 0000740 208.2946 233.9792  1.00271509 49312"}}, "geometry": {"type": "Point", "coordinates": [-79.99346061633749, -1.67008322475386]}}, {"type": "Feature", "properties": {"norad_id": 37214, "name": "FENGYUN 3B", "group": "weather", "lat": 24.93616340127414, "lon": -139.56713242912386, "alt_km": 857.8257212729095, "timestamp": "2025-12-22T04:03:38.803543+00:00", "meta": {"OBJECT_NAME": "FENGYUN 3B", "OBJECT_ID": "2010-059A", "EPOCH": "2025-12-21T21:21:25.328736", "MEAN_MOTION": 14.14791213, "ECCENTRICITY": 0.0021643, "INCLINATION": 98.9896, "RA_OF_ASC_NODE": 35.9308, "ARG_OF_PERICENTER": 331.7598, "MEAN_ANOMALY": 201.018, "EPHEMERIS_TYPE": 0, "CLASSIFICATION_TYPE": "U", "NORAD_CAT_ID": 37214, "ELEMENT_SET_NO": 999, "REV_AT_EPOCH": 78235, "BSTAR": -8.1449e-05, "MEAN_MOTION_DOT": -2.03e-06, "MEAN_MOTION_DDOT": 0}, "tle": {"line1": "1 37214U 10059A   25355.88987649 -.00000203  00000+0 -81449-4 0  9997", "line2": "2 37214  98.9896  35.9308 0021643 331.7598 201.0180 14.14791213782358"}}, "geometry": {"type": "Point", "coordinates": [-139.56713242912386, 24.93616340127414]}}, {"type": "Feature", "properties": {"norad_id": 37849, "name": "SUOMI NPP", "group": "weather", "lat": 24.131127263958618, "lon": 117.39455827435731, "alt_km": 825.3759367292296, "timestamp": "2025-12-22T04:03:38.803554+00:00", "meta": {"OBJECT_NAME": "SUOMI NPP", "OBJECT_ID": "2011-061A", "EPOCH": "2025-12-17T23:31:21.474624", "MEAN_MOTION": 14.19515682, "ECCENTRICITY": 0.00023932, "INCLINATION": 98.7779, "RA_OF_ASC_NODE": 289.2746, "ARG_OF_PERICENTER": 111.1248, "MEAN_ANOMALY": 249.0184, "EPHEMERIS_TYPE": 0, "CLASSIFICATION_TYPE": "U", "NORAD_CAT_ID": 37849, "ELEMENT_SET_NO": 999, "REV_AT_EPOCH": 73273, "BSTAR": 4.8615036e-05, "MEAN_MOTION_DOT": 5.8e-07, "MEAN_MOTION_DDOT": 0}, "tle": {"line1": "1 37849U 11061A   25351.98010966  .00000058  00000+0  48615-4 0  9995", "line2": "2 37849  98.7779 289.2746 0002393 111.1248 249.0184 14.19515682732735"}}, "geometry": {"type": "Point", "coordinates": [117.39455827435731, 24.131127263958618]}}]}